FENGYUN 1C DEB          
1 30899U 99025AYM 17345.15460916  .00000885  00000-0  49690-3 0  9998
2 30899  99.1255  93.7284 0040331 275.3079 204.3886 14.12910969554433
